{
"type": "FeatureCollection",
"name": "412221128489998_2017_June",
"crs": { "type": "name", "properties": { "name": "urn:ogc:def:crs:OGC:1.3:CRS84" } },
"features": [
{ "type": "Feature", "properties": { "plot_id": "412221128489998", "measurement_year": 2017, "measurement_month": "June" }, "geometry": { "type": "Polygon", "coordinates": [ [ [ -122.891138304454586, 40.894864533019536 ], [ -122.891138304454586, 40.89703744913723 ], [ -122.888263695545419, 40.89703744913723 ], [ -122.888263695545419, 40.894864533019536 ], [ -122.891138304454586, 40.894864533019536 ] ] ] } }
]
}
